[{"OBJECT_NAME":"STARLINK-2506","OBJECT_ID":"2021-036AR","EPOCH":"2026-03-09T06:38:45.414528","MEAN_MOTION":15.06398783,"ECCENTRICITY":0.00014126,"INCLINATION":53.0562,"RA_OF_ASC_NODE":93.4738,"ARG_OF_PERICENTER":92.8622,"MEAN_ANOMALY":267.2529,"EPHEMERIS_TYPE":0,"CLASSIFICATION_TYPE":"U","NORAD_CAT_ID":48315,"ELEMENT_SET_NO":999,"REV_AT_EPOCH":26810,"BSTAR":-8.872372e-6,"MEAN_MOTION_DOT":-4.14e-6,"MEAN_MOTION_DDOT":0},{"OBJECT_NAME":"COSMOS 2084","OBJECT_ID":"1990-055A","EPOCH":"2026-03-09T23:42:10.320480","MEAN_MOTION":15.05654003,"ECCENTRICITY":0.00170188,"INCLINATION":62.7921,"RA_OF_ASC_NODE":334.5624,"ARG_OF_PERICENTER":190.1371,"MEAN_ANOMALY":169.9389,"EPHEMERIS_TYPE":0,"CLASSIFICATION_TYPE":"U","NORAD_CAT_ID":20663,"ELEMENT_SET_NO":999,"REV_AT_EPOCH":93636,"BSTAR":0.00023056361,"MEAN_MOTION_DOT":3.154e-5,"MEAN_MOTION_DDOT":0}]
